ORBCOMM FM05            
1 25117U 97084F   25202.41608496  .00000819  00000+0  26787-3 0  9993
2 25117  45.0134 203.6985 0003123 331.2438  28.8241 14.46015062445569
ORBCOMM FM06            
1 25118U 97084G   25202.71395764  .00000968  00000+0  30858-3 0  9997
2 25118  45.0127 201.9686 0002661 313.8740 216.7789 14.46150611446554
ORBCOMM FM07            
1 25119U 97084H   25202.41833579  .00000882  00000+0  28484-3 0  9993
2 25119  45.0121 204.1563 0003856 338.1062  21.9624 14.46147876446476
ORBCOMM FM03            
1 25158U 98007B   25202.50287053  .00000763  00000+0  31325-3 0  9998
2 25158 107.9667 206.0978 0045118 191.0966 168.9182 14.34563312428968
ORBCOMM FM04            
1 25159U 98007C   25202.76005139  .00000670  00000+0  27996-3 0  9996
2 25159 107.9657 209.8718 0040847 188.2917 171.7552 14.34809178429292
ORBCOMM FM17            
1 25413U 98046A   25202.16089821  .00000558  00000+0  24261-3 0  9993
2 25413  44.9945  97.2608 0003874  15.0352 345.0610 14.35139955408053
ORBCOMM FM18            
1 25414U 98046B   25202.79479003  .00000818  00000+0  31086-3 0  9990
2 25414  44.9942  10.7400 0005128 107.5189 252.6220 14.38621340409407
ORBCOMM FM19            
1 25415U 98046C   25202.47373078  .00000796  00000+0  30464-3 0  9995
2 25415  44.9953  14.3166 0003859 102.6025 285.1113 14.38429030409148
